CTC2_L_00593001-01
1 80726U 25132IQ  26070.40851852  .00000000  00000+0  00000-0 0  9993
2 80726  65.0000   0.0000 0000000   0.0000   0.0000  6.70625815    17
CTC2_L_00593001-02
1 80727U 22686UR  26070.40851852  .00000000  00000+0  00000-0 0  9995
2 80727  65.0000   0.0000 0000000   0.0000  36.0000  6.70625815    17
CTC2_L_00593001-03
1 80728U 25760JU  26070.40851852  .00000000  00000+0  00000-0 0  9992
2 80728  65.0000   0.0000 0000000   0.0000  72.0000  6.70625815    18
CTC2_L_00593001-04
1 80729U 23247OS  26070.40851852  .00000000  00000+0  00000-0 0  9991
2 80729  65.0000   0.0000 0000000   0.0000 108.0000  6.70625815    19
CTC2_L_00593001-05
1 80730U 25480K   26070.40851852  .00000000  00000+0  00000-0 0  9994
2 80730  65.0000   0.0000 0000000   0.0000 144.0000  6.70625815    11
CTC2_L_00593001-06
1 80731U 24924YO  26070.40851852  .00000000  00000+0  00000-0 0  9997
2 80731  65.0000   0.0000 0000000   0.0000 180.0000  6.70625815    12
CTC2_L_00593001-07
1 80732U 26909KB  26070.40851852  .00000000  00000+0  00000-0 0  9993
2 80732  65.0000   0.0000 0000000   0.0000 216.0000  6.70625815    13
CTC2_L_00593001-08
1 80733U 25038YG  26070.40851852  .00000000  00000+0  00000-0 0  9996
2 80733  65.0000   0.0000 0000000   0.0000 252.0000  6.70625815    14
CTC2_L_00593001-09
1 80734U 26383MY  26070.40851852  .00000000  00000+0  00000-0 0  9991
2 80734  65.0000   0.0000 0000000   0.0000 288.0000  6.70625815    14
CTC2_L_00593001-10
1 80735U 22530JT  26070.40851852  .00000000  00000+0  00000-0 0  9992
2 80735  65.0000   0.0000 0000000   0.0000 324.0000  6.70625815    16
CTC2_L_00593002-01
1 80736U 24359PR  26070.40851852  .00000000  00000+0  00000-0 0  9994
2 80736  65.0000  30.0000 0000000   0.0000  12.0000  6.70625815    14
CTC2_L_00593002-02
1 80737U 25464HK  26070.40851852  .00000000  00000+0  00000-0 0  9993
2 80737  65.0000  30.0000 0000000   0.0000  48.0000  6.70625815    14
CTC2_L_00593002-03
1 80738U 22407OF  26070.40851852  .00000000  00000+0  00000-0 0  9998
2 80738  65.0000  30.0000 0000000   0.0000  84.0000  6.70625815    15
CTC2_L_00593002-04
1 80739U 24170YH  26070.40851852  .00000000  00000+0  00000-0 0  9998
2 80739  65.0000  30.0000 0000000   0.0000 120.0000  6.70625815    17
CTC2_L_00593002-05
1 80740U 23379PW  26070.40851852  .00000000  00000+0  00000-0 0  9990
2 80740  65.0000  30.0000 0000000   0.0000 156.0000  6.70625815    18
CTC2_L_00593002-06
1 80741U 25529O   26070.40851852  .00000000  00000+0  00000-0 0  9990
2 80741  65.0000  30.0000 0000000   0.0000 192.0000  6.70625815    19
CTC2_L_00593002-07
1 80742U 25085DW  26070.40851852  .00000000  00000+0  00000-0 0  9998
2 80742  65.0000  30.0000 0000000   0.0000 228.0000  6.70625815    10
CTC2_L_00593002-08
1 80743U 22194ZX  26070.40851852  .00000000  00000+0  00000-0 0  9997
2 80743  65.0000  30.0000 0000000   0.0000 264.0000  6.70625815    11
CTC2_L_00593002-09
1 80744U 26393PP  26070.40851852  .00000000  00000+0  00000-0 0  9993
2 80744  65.0000  30.0000 0000000   0.0000 300.0000  6.70625815    13
CTC2_L_00593002-10
1 80745U 22425GR  26070.40851852  .00000000  00000+0  00000-0 0  9996
2 80745  65.0000  30.0000 0000000   0.0000 336.0000  6.70625815    13
CTC2_L_00593003-01
1 80746U 23570MC  26070.40851852  .00000000  00000+0  00000-0 0  9999
2 80746  65.0000  60.0000 0000000   0.0000  24.0000  6.70625815    11
CTC2_L_00593003-02
1 80747U 26232MQ  26070.40851852  .00000000  00000+0  00000-0 0  9998
2 80747  65.0000  60.0000 0000000   0.0000  60.0000  6.70625815    12
CTC2_L_00593003-03
1 80748U 25148TU  26070.40851852  .00000000  00000+0  00000-0 0  9994
2 80748  65.0000  60.0000 0000000   0.0000  96.0000  6.70625815    12
CTC2_L_00593003-04
1 80749U 25348OY  26070.40851852  .00000000  00000+0  00000-0 0  9997
2 80749  65.0000  60.0000 0000000   0.0000 132.0000  6.70625815    14
CTC2_L_00593003-05
1 80750U 22815QK  26070.40851852  .00000000  00000+0  00000-0 0  9995
2 80750  65.0000  60.0000 0000000   0.0000 168.0000  6.70625815    15
CTC2_L_00593003-06
1 80751U 25038AK  26070.40851852  .00000000  00000+0  00000-0 0  9996
2 80751  65.0000  60.0000 0000000   0.0000 204.0000  6.70625815    17
CTC2_L_00593003-07
1 80752U 24721EG  26070.40851852  .00000000  00000+0  00000-0 0  9995
2 80752  65.0000  60.0000 0000000   0.0000 240.0000  6.70625815    18
CTC2_L_00593003-08
1 80753U 23856MR  26070.40851852  .00000000  00000+0  00000-0 0  9994
2 80753  65.0000  60.0000 0000000   0.0000 276.0000  6.70625815    18
CTC2_L_00593003-09
1 80754U 22660EO  26070.40851852  .00000000  00000+0  00000-0 0  9997
2 80754  65.0000  60.0000 0000000   0.0000 312.0000  6.70625815    10
CTC2_L_00593003-10
1 80755U 24850HL  26070.40851852  .00000000  00000+0  00000-0 0  9991
2 80755  65.0000  60.0000 0000000   0.0000 348.0000  6.70625815    10
CTC2_L_00593004-01
1 80756U 22629US  26070.40851852  .00000000  00000+0  00000-0 0  9994
2 80756  65.0000  90.0000 0000000   0.0000  36.0000  6.70625815    18
CTC2_L_00593004-02
1 80757U 22901YV  26070.40851852  .00000000  00000+0  00000-0 0  9998
2 80757  65.0000  90.0000 0000000   0.0000  72.0000  6.70625815    19
CTC2_L_00593004-03
1 80758U 24435WQ  26070.40851852  .00000000  00000+0  00000-0 0  9993
2 80758  65.0000  90.0000 0000000   0.0000 108.0000  6.70625815    10
CTC2_L_00593004-04
1 80759U 24410QO  26070.40851852  .00000000  00000+0  00000-0 0  9997
2 80759  65.0000  90.0000 0000000   0.0000 144.0000  6.70625815    11
CTC2_L_00593004-05
1 80760U 25526UZ  26070.40851852  .00000000  00000+0  00000-0 0  9998
2 80760  65.0000  90.0000 0000000   0.0000 180.0000  6.70625815    13
CTC2_L_00593004-06
1 80761U 22620V   26070.40851852  .00000000  00000+0  00000-0 0  9991
2 80761  65.0000  90.0000 0000000   0.0000 216.0000  6.70625815    14
CTC2_L_00593004-07
1 80762U 26415OP  26070.40851852  .00000000  00000+0  00000-0 0  9998
2 80762  65.0000  90.0000 0000000   0.0000 252.0000  6.70625815    15
CTC2_L_00593004-08
1 80763U 23669IW  26070.40851852  .00000000  00000+0  00000-0 0  9997
2 80763  65.0000  90.0000 0000000   0.0000 288.0000  6.70625815    15
CTC2_L_00593004-09
1 80764U 22927DG  26070.40851852  .00000000  00000+0  00000-0 0  9994
2 80764  65.0000  90.0000 0000000   0.0000 324.0000  6.70625815    17
CTC2_L_00593004-10
1 80765U 24931VG  26070.40851852  .00000000  00000+0  00000-0 0  9992
2 80765  65.0000  90.0000 0000000   0.0000   0.0000  6.70625815    19
CTC2_L_00593005-01
1 80766U 22493GB  26070.40851852  .00000000  00000+0  00000-0 0  9994
2 80766  65.0000 120.0000 0000000   0.0000  48.0000  6.70625815    16
CTC2_L_00593005-02
1 80767U 25917XQ  26070.40851852  .00000000  00000+0  00000-0 0  9999
2 80767  65.0000 120.0000 0000000   0.0000  84.0000  6.70625815    17
CTC2_L_00593005-03
1 80768U 23520PQ  26070.40851852  .00000000  00000+0  00000-0 0  9998
2 80768  65.0000 120.0000 0000000   0.0000 120.0000  6.70625815    19
CTC2_L_00593005-04
1 80769U 26312R   26070.40851852  .00000000  00000+0  00000-0 0  9991
2 80769  65.0000 120.0000 0000000   0.0000 156.0000  6.70625815    19
CTC2_L_00593005-05
1 80770U 23905IY  26070.40851852  .00000000  00000+0  00000-0 0  9998
2 80770  65.0000 120.0000 0000000   0.0000 192.0000  6.70625815    11
CTC2_L_00593005-06
1 80771U 24170AL  26070.40851852  .00000000  00000+0  00000-0 0  9994
2 80771  65.0000 120.0000 0000000   0.0000 228.0000  6.70625815    12
CTC2_L_00593005-07
1 80772U 24599KW  26070.40851852  .00000000  00000+0  00000-0 0  9990
2 80772  65.0000 120.0000 0000000   0.0000 264.0000  6.70625815    13
CTC2_L_00593005-08
1 80773U 24109YL  26070.40851852  .00000000  00000+0  00000-0 0  9998
2 80773  65.0000 120.0000 0000000   0.0000 300.0000  6.70625815    15
CTC2_L_00593005-09
1 80774U 26146QD  26070.40851852  .00000000  00000+0  00000-0 0  9992
2 80774  65.0000 120.0000 0000000   0.0000 336.0000  6.70625815    15
CTC2_L_00593005-10
1 80775U 25919BC  26070.40851852  .00000000  00000+0  00000-0 0  9990
2 80775  65.0000 120.0000 0000000   0.0000  12.0000  6.70625815    17
CTC2_L_00593006-01
1 80776U 26883MT  26070.40851852  .00000000  00000+0  00000-0 0  9992
2 80776  65.0000 150.0000 0000000   0.0000  60.0000  6.70625815    14
CTC2_L_00593006-02
1 80777U 22719NT  26070.40851852  .00000000  00000+0  00000-0 0  9997
2 80777  65.0000 150.0000 0000000   0.0000  96.0000  6.70625815    14
CTC2_L_00593006-03
1 80778U 26584CK  26070.40851852  .00000000  00000+0  00000-0 0  9992
2 80778  65.0000 150.0000 0000000   0.0000 132.0000  6.70625815    16
CTC2_L_00593006-04
1 80779U 24339VZ  26070.40851852  .00000000  00000+0  00000-0 0  9999
2 80779  65.0000 150.0000 0000000   0.0000 168.0000  6.70625815    16
CTC2_L_00593006-05
1 80780U 25092S   26070.40851852  .00000000  00000+0  00000-0 0  9998
2 80780  65.0000 150.0000 0000000   0.0000 204.0000  6.70625815    19
CTC2_L_00593006-06
1 80781U 24805MW  26070.40851852  .00000000  00000+0  00000-0 0  9990
2 80781  65.0000 150.0000 0000000   0.0000 240.0000  6.70625815    10
CTC2_L_00593006-07
1 80782U 26648BH  26070.40851852  .00000000  00000+0  00000-0 0  9998
2 80782  65.0000 150.0000 0000000   0.0000 276.0000  6.70625815    10
CTC2_L_00593006-08
1 80783U 24686MR  26070.40851852  .00000000  00000+0  00000-0 0  9999
2 80783  65.0000 150.0000 0000000   0.0000 312.0000  6.70625815    12
CTC2_L_00593006-09
1 80784U 24495CC  26070.40851852  .00000000  00000+0  00000-0 0  9998
2 80784  65.0000 150.0000 0000000   0.0000 348.0000  6.70625815    12
CTC2_L_00593006-10
1 80785U 22295DA  26070.40851852  .00000000  00000+0  00000-0 0  9995
2 80785  65.0000 150.0000 0000000   0.0000  24.0000  6.70625815    14
CTC2_L_00593007-01
1 80786U 26858F   26070.40851852  .00000000  00000+0  00000-0 0  9995
2 80786  65.0000 180.0000 0000000   0.0000  72.0000  6.70625815    11
CTC2_L_00593007-02
1 80787U 22881DG  26070.40851852  .00000000  00000+0  00000-0 0  9998
2 80787  65.0000 180.0000 0000000   0.0000 108.0000  6.70625815    12
